[{"OBJECT_NAME":"STARLINK-5485","OBJECT_ID":"2023-094AV","EPOCH":"2026-03-09T22:00:01.999584","MEAN_MOTION":15.14639465,"ECCENTRICITY":0.00016836,"INCLINATION":43.001,"RA_OF_ASC_NODE":28.4084,"ARG_OF_PERICENTER":253.972,"MEAN_ANOMALY":53.3121,"EPHEMERIS_TYPE":0,"CLASSIFICATION_TYPE":"U","NORAD_CAT_ID":57261,"ELEMENT_SET_NO":999,"REV_AT_EPOCH":577,"BSTAR":0.0044032265,"MEAN_MOTION_DOT":0.000836,"MEAN_MOTION_DDOT":0},{"OBJECT_NAME":"FENGYUN 1C DEB","OBJECT_ID":"1999-025DZE","EPOCH":"2026-02-28T06:22:54.338880","MEAN_MOTION":15.08907087,"ECCENTRICITY":0.00232464,"INCLINATION":99.4552,"RA_OF_ASC_NODE":173.2368,"ARG_OF_PERICENTER":218.3208,"MEAN_ANOMALY":141.6363,"EPHEMERIS_TYPE":0,"CLASSIFICATION_TYPE":"U","NORAD_CAT_ID":36684,"ELEMENT_SET_NO":999,"REV_AT_EPOCH":67065,"BSTAR":0.0055309563,"MEAN_MOTION_DOT":0.00088715,"MEAN_MOTION_DDOT":0}]
